[{"OBJECT_NAME":"R2","OBJECT_ID":"2020-081J","EPOCH":"2026-03-09T01:19:00.333408","MEAN_MOTION":15.23806181,"ECCENTRICITY":0.0005079,"INCLINATION":36.8981,"RA_OF_ASC_NODE":317.5127,"ARG_OF_PERICENTER":163.7384,"MEAN_ANOMALY":196.3528,"EPHEMERIS_TYPE":0,"CLASSIFICATION_TYPE":"U","NORAD_CAT_ID":46913,"ELEMENT_SET_NO":999,"REV_AT_EPOCH":29669,"BSTAR":0.000513162,"MEAN_MOTION_DOT":0.00012575,"MEAN_MOTION_DDOT":0},{"OBJECT_NAME":"SUPERVIEW NEO-2 01","OBJECT_ID":"2022-082A","EPOCH":"2026-03-09T23:46:34.771008","MEAN_MOTION":15.24506379,"ECCENTRICITY":0.00017316,"INCLINATION":97.394,"RA_OF_ASC_NODE":80.2484,"ARG_OF_PERICENTER":88.8448,"MEAN_ANOMALY":271.2988,"EPHEMERIS_TYPE":0,"CLASSIFICATION_TYPE":"U","NORAD_CAT_ID":53128,"ELEMENT_SET_NO":999,"REV_AT_EPOCH":20309,"BSTAR":0.00036489892,"MEAN_MOTION_DOT":8.905e-5,"MEAN_MOTION_DDOT":0}]
